{
  "type": "FeatureCollection",
  "features": [
    {
      "type": "Feature",
      "properties": {
        "norad_id": 66394,
        "name": "STARLINK-35672",
        "group": "last-30-days",
        "lat": 45.0214425204307,
        "lon": -14.404857521341341,
        "alt_km": 436.13964259223394,
        "timestamp": "2025-12-05T19:30:24.349218+00:00",
        "meta_object_name": "STARLINK-35672",
        "meta_object_id": "2025-257Q",
        "meta_epoch": "2025-12-05T06:00:02.000160",
        "meta_mean_motion": 15.43520746,
        "meta_eccentricity": 0.00014818,
        "meta_inclination": 53.1599,
        "meta_ra_of_asc_node": 299.6434,
        "meta_arg_of_pericenter": 86.7221,
        "meta_mean_anomaly": 89.1592,
        "meta_ephemeris_type": 0,
        "meta_classification_type": "U",
        "meta_norad_cat_id": 66394,
        "meta_element_set_no": 999,
        "meta_rev_at_epoch": 529,
        "meta_bstar": -0.049977581,
        "meta_mean_motion_dot": -0.02026812,
        "meta_mean_motion_ddot": 0,
        "tle_line1": "1 66394U 25257Q   25339.25002315 -.02026812  00000+0 -49978-1 0  9999",
        "tle_line2": "2 66394  53.1599 299.6434 0001481  86.7221  89.1592 15.43520746  5296"
      },
      "geometry": {
        "type": "Point",
        "coordinates": [
          -14.404857521341341,
          45.0214425204307
        ]
      }
    },
    {
      "type": "Feature",
      "properties": {
        "norad_id": 66395,
        "name": "STARLINK-35681",
        "group": "last-30-days",
        "lat": 52.916924596620696,
        "lon": 19.651498535153074,
        "alt_km": 421.05839610072144,
        "timestamp": "2025-12-05T19:30:24.349228+00:00",
        "meta_object_name": "STARLINK-35681",
        "meta_object_id": "2025-257R",
        "meta_epoch": "2025-12-05T03:38:00.834720",
        "meta_mean_motion": 15.47742281,
        "meta_eccentricity": 0.00052248,
        "meta_inclination": 53.1595,
        "meta_ra_of_asc_node": 300.0863,
        "meta_arg_of_pericenter": 189.6371,
        "meta_mean_anomaly": 170.4538,
        "meta_ephemeris_type": 0,
        "meta_classification_type": "U",
        "meta_norad_cat_id": 66395,
        "meta_element_set_no": 999,
        "meta_rev_at_epoch": 513,
        "meta_bstar": -0.020111944,
        "meta_mean_motion_dot": -0.00970243,
        "meta_mean_motion_ddot": 0,
        "tle_line1": "1 66395U 25257R   25339.15139855 -.00970243  00000+0 -20112-1 0  9992",
        "tle_line2": "2 66395  53.1595 300.0863 0005224 189.6371 170.4538 15.47742281  5135"
      },
      "geometry": {
        "type": "Point",
        "coordinates": [
          19.651498535153074,
          52.916924596620696
        ]
      }
    },
    {
      "type": "Feature",
      "properties": {
        "norad_id": 66396,
        "name": "STARLINK-35669",
        "group": "last-30-days",
        "lat": 52.87419213853709,
        "lon": 34.853082672589174,
        "alt_km": 409.61075188998166,
        "timestamp": "2025-12-05T19:30:24.349239+00:00",
        "meta_object_name": "STARLINK-35669",
        "meta_object_id": "2025-257S",
        "meta_epoch": "2025-12-04T09:02:39.769152",
        "meta_mean_motion": 15.49365522,
        "meta_eccentricity": 0.0001327,
        "meta_inclination": 53.1591,
        "meta_ra_of_asc_node": 303.7835,
        "meta_arg_of_pericenter": 104.0612,
        "meta_mean_anomaly": 256.0545,
        "meta_ephemeris_type": 0,
        "meta_classification_type": "U",
        "meta_norad_cat_id": 66396,
        "meta_element_set_no": 999,
        "meta_rev_at_epoch": 508,
        "meta_bstar": 0.0021205,
        "meta_mean_motion_dot": 0.00119543,
        "meta_mean_motion_ddot": 0,
        "tle_line1": "1 66396U 25257S   25338.37684918  .00119543  00000+0  21205-2 0  9992",
        "tle_line2": "2 66396  53.1591 303.7835 0001327 104.0612 256.0545 15.49365522  5084"
      },
      "geometry": {
        "type": "Point",
        "coordinates": [
          34.853082672589174,
          52.87419213853709
        ]
      }
    },
    {
      "type": "Feature",
      "properties": {
        "norad_id": 66397,
        "name": "STARLINK-35510",
        "group": "last-30-days",
        "lat": 52.78314350734968,
        "lon": 36.10844911685752,
        "alt_km": 410.4568405363043,
        "timestamp": "2025-12-05T19:30:24.349249+00:00",
        "meta_object_name": "STARLINK-35510",
        "meta_object_id": "2025-257T",
        "meta_epoch": "2025-12-05T06:42:40.882176",
        "meta_mean_motion": 15.4930324,
        "meta_eccentricity": 0.00015769,
        "meta_inclination": 53.1591,
        "meta_ra_of_asc_node": 299.4635,
        "meta_arg_of_pericenter": 55.6954,
        "meta_mean_anomaly": 304.4204,
        "meta_ephemeris_type": 0,
        "meta_classification_type": "U",
        "meta_norad_cat_id": 66397,
        "meta_element_set_no": 999,
        "meta_rev_at_epoch": 522,
        "meta_bstar": 0.0021734523,
        "meta_mean_motion_dot": 0.00122316,
        "meta_mean_motion_ddot": 0,
        "tle_line1": "1 66397U 25257T   25339.27963984  .00122316  00000+0  21735-2 0  9996",
        "tle_line2": "2 66397  53.1591 299.4635 0001576  55.6954 304.4204 15.49303240  5225"
      },
      "geometry": {
        "type": "Point",
        "coordinates": [
          36.10844911685752,
          52.78314350734968
        ]
      }
    },
    {
      "type": "Feature",
      "properties": {
        "norad_id": 66398,
        "name": "STARLINK-35642",
        "group": "last-30-days",
        "lat": 52.26758709784497,
        "lon": 41.23018456637318,
        "alt_km": 414.9829537251335,
        "timestamp": "2025-12-05T19:30:24.349259+00:00",
        "meta_object_name": "STARLINK-35642",
        "meta_object_id": "2025-257U",
        "meta_epoch": "2025-12-05T05:08:48.805728",
        "meta_mean_motion": 15.49933402,
        "meta_eccentricity": 9.989e-05,
        "meta_inclination": 53.1594,
        "meta_ra_of_asc_node": 299.7669,
        "meta_arg_of_pericenter": 357.8183,
        "meta_mean_anomaly": 2.2822,
        "meta_ephemeris_type": 0,
        "meta_classification_type": "U",
        "meta_norad_cat_id": 66398,
        "meta_element_set_no": 999,
        "meta_rev_at_epoch": 521,
        "meta_bstar": -0.025665477,
        "meta_mean_motion_dot": -0.01317318,
        "meta_mean_motion_ddot": 0,
        "tle_line1": "1 66398U 25257U   25339.21445377 -.01317318  00000+0 -25665-1 0  9998",
        "tle_line2": "2 66398  53.1594 299.7669 0000998 357.8183   2.2822 15.49933402  5214"
      },
      "geometry": {
        "type": "Point",
        "coordinates": [
          41.23018456637318,
          52.26758709784497
        ]
      }
    },
    {
      "type": "Feature",
      "properties": {
        "norad_id": 66399,
        "name": "STARLINK-35657",
        "group": "last-30-days",
        "lat": 51.62009667260503,
        "lon": 45.70711815025466,
        "alt_km": 411.7977313767133,
        "timestamp": "2025-12-05T19:30:24.349271+00:00",
        "meta_object_name": "STARLINK-35657",
        "meta_object_id": "2025-257V",
        "meta_epoch": "2025-12-05T05:08:21.567264",
        "meta_mean_motion": 15.50012684,
        "meta_eccentricity": 9.654e-05,
        "meta_inclination": 53.1594,
        "meta_ra_of_asc_node": 299.7653,
        "meta_arg_of_pericenter": 53.0489,
        "meta_mean_anomaly": 307.0609,
        "meta_ephemeris_type": 0,
        "meta_classification_type": "U",
        "meta_norad_cat_id": 66399,
        "meta_element_set_no": 999,
        "meta_rev_at_epoch": 521,
        "meta_bstar": -0.013025319,
        "meta_mean_motion_dot": -0.00681635,
        "meta_mean_motion_ddot": 0,
        "tle_line1": "1 66399U 25257V   25339.21413851 -.00681635  00000+0 -13025-1 0  9993",
        "tle_line2": "2 66399  53.1594 299.7653 0000965  53.0489 307.0609 15.50012684  5217"
      },
      "geometry": {
        "type": "Point",
        "coordinates": [
          45.70711815025466,
          51.62009667260503
        ]
      }
    },
    {
      "type": "Feature",
      "properties": {
        "norad_id": 66400,
        "name": "STARLINK-35667",
        "group": "last-30-days",
        "lat": 51.16484400228031,
        "lon": 48.257266347991134,
        "alt_km": 410.95976292849537,
        "timestamp": "2025-12-05T19:30:24.349283+00:00",
        "meta_object_name": "STARLINK-35667",
        "meta_object_id": "2025-257W",
        "meta_epoch": "2025-12-05T05:07:48.019872",
        "meta_mean_motion": 15.49306176,
        "meta_eccentricity": 0.00010953,
        "meta_inclination": 53.1596,
        "meta_ra_of_asc_node": 299.762,
        "meta_arg_of_pericenter": 93.5643,
        "meta_mean_anomaly": 266.5491,
        "meta_ephemeris_type": 0,
        "meta_classification_type": "U",
        "meta_norad_cat_id": 66400,
        "meta_element_set_no": 999,
        "meta_rev_at_epoch": 521,
        "meta_bstar": 0.00092400776,
        "meta_mean_motion_dot": 0.00051274,
        "meta_mean_motion_ddot": 0,
        "tle_line1": "1 66400U 25257W   25339.21375023  .00051274  00000+0  92401-3 0  9999",
        "tle_line2": "2 66400  53.1596 299.7620 0001095  93.5643 266.5491 15.49306176  5210"
      },
      "geometry": {
        "type": "Point",
        "coordinates": [
          48.257266347991134,
          51.16484400228031
        ]
      }
    }
  ]
}